[{"OBJECT_NAME":"QIANFAN-44","OBJECT_ID":"2024-232J","EPOCH":"2026-03-09T22:03:00.548640","MEAN_MOTION":13.5100338,"ECCENTRICITY":0.00121662,"INCLINATION":89.0067,"RA_OF_ASC_NODE":32.2758,"ARG_OF_PERICENTER":308.5439,"MEAN_ANOMALY":51.4621,"EPHEMERIS_TYPE":0,"CLASSIFICATION_TYPE":"U","NORAD_CAT_ID":62245,"ELEMENT_SET_NO":999,"REV_AT_EPOCH":11110,"BSTAR":0.00013972348,"MEAN_MOTION_DOT":1.02e-6,"MEAN_MOTION_DDOT":0},{"OBJECT_NAME":"ISIS 1 DEB","OBJECT_ID":"1969-009D","EPOCH":"2026-03-08T14:20:25.206144","MEAN_MOTION":12.25360884,"ECCENTRICITY":0.12633085,"INCLINATION":88.376,"RA_OF_ASC_NODE":104.7234,"ARG_OF_PERICENTER":28.4177,"MEAN_ANOMALY":75.1343,"EPHEMERIS_TYPE":0,"CLASSIFICATION_TYPE":"U","NORAD_CAT_ID":36301,"ELEMENT_SET_NO":999,"REV_AT_EPOCH":70156,"BSTAR":0.0094926473,"MEAN_MOTION_DOT":0.00017878,"MEAN_MOTION_DDOT":0}]
